*******************************************************************************
Ephemeris / WWW_USER Mon Jul 15 19:01:21 2024 Pasadena, USA      / Horizons    
*******************************************************************************
Target body name: (2018 RP1)                      {source: JPL#4}
Center body name: Earth (399)                     {source: DE441}
Center-site name: Gemini South Obs., Cerro Pachon
*******************************************************************************
Start time      : A.D. 2018-Oct-10 22:58:00.0000 UT      
Stop  time      : A.D. 2018-Oct-11 10:01:00.0000 UT      
Step-size       : 1 minutes
*******************************************************************************
Target pole/equ : undefined
Target radii    : undefined                                                    
Center geodetic : 289.2634, -30.2406227, 2.71233  {E-lon(deg),Lat(deg),Alt(km)}
Center cylindric: 289.2634,5517.21435,-3194.81213 {E-lon(deg),Dxy(km),Dz(km)}
Center pole/equ : ITRF93                          {East-longitude positive}
Center radii    : 6378.137, 6378.137, 6356.752 km {Equator_a, b, pole_c}       
Target primary  : Sun
Vis. interferer : MOON (R_eq= 1737.400) km        {source: DE441}
Rel. light bend : Sun                             {source: DE441}
Rel. lght bnd GM: 1.3271E+11 km^3/s^2                                          
Small-body perts: Yes                             {source: SB441-N16}
Atmos refraction: NO (AIRLESS)
RA format       : HMS
Time format     : CAL 
Calendar mode   : Mixed Julian/Gregorian
RTS-only print  : NO       
EOP file        : eop.240715.p241008                                           
EOP coverage    : DATA-BASED 1962-JAN-20 TO 2024-JUL-15. PREDICTS-> 2024-OCT-07
Units conversion: 1 au= 149597870.700 km, c= 299792.458 km/s, 1 day= 86400.0 s 
Table cut-offs 1: Elevation (-90.0deg=NO ),Airmass (>38.000=NO), Daylight (YES)
Table cut-offs 2: Solar elongation (  0.0,180.0=NO ),Local Hour Angle( 0.0=NO )
Table cut-offs 3: RA/DEC angular rate (     0.0=NO )                           
*******************************************************************************
Initial IAU76/J2000 heliocentric ecliptic osculating elements (au, days, deg.):
  EPOCH=  2458376.5 ! 2018-Sep-15.00 (TDB)         Residual RMS= .12525        
   EC= .3382936082205208   QR= .9576766169446216   TP= 2458412.3293739939      
   OM= 161.903422202901    W=  234.5704247756858   IN= 9.466091569921099       
  Equivalent ICRF heliocentric cartesian coordinates (au, au/d):
   X= 1.017940821946709E+00  Y=-7.278189102440286E-02  Z=-7.249995171787897E-02
  VX=-1.754817228708964E-03 VY= 1.862872143473751E-02 VZ= 4.887370356508847E-03
Asteroid physical parameters (km, seconds, rotational period in hours):        
   GM= n.a.                RAD= n.a.               ROTPER= n.a.                
   H= 24.3                 G= .150                 B-V= n.a.                   
                           ALBEDO= n.a.            STYP= n.a.                  
*******************************************************************************
 Date__(UT)__HR:MN     R.A._________(ICRF)_________DEC
******************************************************
$$SOE
 2018-Oct-10 22:58 Cm  08 07 16.184632 -21 59 52.33698
 2018-Oct-10 22:59 Cm  08 07 16.340403 -21 59 52.29183
 2018-Oct-10 23:00 Cm  08 07 16.496178 -21 59 52.24701
 2018-Oct-10 23:01 Cm  08 07 16.651959 -21 59 52.20251
 2018-Oct-10 23:02 Cm  08 07 16.807745 -21 59 52.15833
 2018-Oct-10 23:03 Cm  08 07 16.963534 -21 59 52.11448
 2018-Oct-10 23:04 Cm  08 07 17.119328 -21 59 52.07095
 2018-Oct-10 23:05 Cm  08 07 17.275125 -21 59 52.02774
 2018-Oct-10 23:06 Cm  08 07 17.430926 -21 59 51.98487
 2018-Oct-10 23:07 Cm  08 07 17.586730 -21 59 51.94231
 2018-Oct-10 23:08 Cm  08 07 17.742537 -21 59 51.90008
 2018-Oct-10 23:09 Cm  08 07 17.898347 -21 59 51.85818
 2018-Oct-10 23:10 Cm  08 07 18.054159 -21 59 51.81660
 2018-Oct-10 23:11 Cm  08 07 18.209973 -21 59 51.77535
 2018-Oct-10 23:12 Cm  08 07 18.365789 -21 59 51.73442
 2018-Oct-10 23:13 Cm  08 07 18.521606 -21 59 51.69382
 2018-Oct-10 23:14 Cm  08 07 18.677425 -21 59 51.65355
 2018-Oct-10 23:15 Nm  08 07 18.833245 -21 59 51.61360
 2018-Oct-10 23:16 Nm  08 07 18.989065 -21 59 51.57398
 2018-Oct-10 23:17 Nm  08 07 19.144886 -21 59 51.53468
 2018-Oct-10 23:18 Nm  08 07 19.300707 -21 59 51.49571
 2018-Oct-10 23:19 Nm  08 07 19.456527 -21 59 51.45707
 2018-Oct-10 23:20 Nm  08 07 19.612348 -21 59 51.41875
 2018-Oct-10 23:21 Nm  08 07 19.768167 -21 59 51.38076
 2018-Oct-10 23:22 Nm  08 07 19.923986 -21 59 51.34310
 2018-Oct-10 23:23 Nm  08 07 20.079803 -21 59 51.30576
 2018-Oct-10 23:24 Nm  08 07 20.235619 -21 59 51.26875
 2018-Oct-10 23:25 Nm  08 07 20.391433 -21 59 51.23207
 2018-Oct-10 23:26 Nm  08 07 20.547245 -21 59 51.19571
 2018-Oct-10 23:27 Nm  08 07 20.703055 -21 59 51.15968
 2018-Oct-10 23:28 Nm  08 07 20.858862 -21 59 51.12398
 2018-Oct-10 23:29 Nm  08 07 21.014666 -21 59 51.08860
 2018-Oct-10 23:30 Nm  08 07 21.170467 -21 59 51.05355
 2018-Oct-10 23:31 Nm  08 07 21.326265 -21 59 51.01883
 2018-Oct-10 23:32 Nm  08 07 21.482058 -21 59 50.98444
 2018-Oct-10 23:33 Nm  08 07 21.637848 -21 59 50.95037
 2018-Oct-10 23:34 Nm  08 07 21.793633 -21 59 50.91663
 2018-Oct-10 23:35 Nm  08 07 21.949414 -21 59 50.88321
 2018-Oct-10 23:36 Nm  08 07 22.105190 -21 59 50.85013
 2018-Oct-10 23:37 Nm  08 07 22.260961 -21 59 50.81737
 2018-Oct-10 23:38 Nm  08 07 22.416726 -21 59 50.78493
 2018-Oct-10 23:39 Nm  08 07 22.572486 -21 59 50.75283
 2018-Oct-10 23:40 Nm  08 07 22.728239 -21 59 50.72105
 2018-Oct-10 23:41 Nm  08 07 22.883987 -21 59 50.68960
 2018-Oct-10 23:42 Nm  08 07 23.039727 -21 59 50.65847
 2018-Oct-10 23:43 Am  08 07 23.195461 -21 59 50.62767
 2018-Oct-10 23:44 Am  08 07 23.351188 -21 59 50.59720
 2018-Oct-10 23:45 Am  08 07 23.506908 -21 59 50.56705
 2018-Oct-10 23:46 Am  08 07 23.662620 -21 59 50.53723
 2018-Oct-10 23:47 Am  08 07 23.818324 -21 59 50.50774
 2018-Oct-10 23:48 Am  08 07 23.974020 -21 59 50.47857
 2018-Oct-10 23:49 Am  08 07 24.129707 -21 59 50.44973
 2018-Oct-10 23:50 Am  08 07 24.285385 -21 59 50.42121
 2018-Oct-10 23:51 Am  08 07 24.441055 -21 59 50.39303
 2018-Oct-10 23:52 Am  08 07 24.596715 -21 59 50.36516
 2018-Oct-10 23:53 Am  08 07 24.752366 -21 59 50.33762
 2018-Oct-10 23:54 Am  08 07 24.908007 -21 59 50.31041
 2018-Oct-10 23:55 Am  08 07 25.063637 -21 59 50.28352
 2018-Oct-10 23:56 Am  08 07 25.219257 -21 59 50.25696
 2018-Oct-10 23:57 Am  08 07 25.374867 -21 59 50.23073
 2018-Oct-10 23:58 Am  08 07 25.530465 -21 59 50.20481
 2018-Oct-10 23:59 Am  08 07 25.686053 -21 59 50.17923
 2018-Oct-11 00:00 Am  08 07 25.841629 -21 59 50.15396
 2018-Oct-11 00:01 Am  08 07 25.997192 -21 59 50.12903
 2018-Oct-11 00:02 Am  08 07 26.152744 -21 59 50.10441
 2018-Oct-11 00:03 Am  08 07 26.308284 -21 59 50.08012
 2018-Oct-11 00:04 Am  08 07 26.463811 -21 59 50.05615
 2018-Oct-11 00:05 Am  08 07 26.619325 -21 59 50.03251
 2018-Oct-11 00:06 Am  08 07 26.774826 -21 59 50.00919
 2018-Oct-11 00:07 Am  08 07 26.930313 -21 59 49.98620
 2018-Oct-11 00:08 Am  08 07 27.085787 -21 59 49.96352
 2018-Oct-11 00:09 Am  08 07 27.241246 -21 59 49.94117
 2018-Oct-11 00:10 Am  08 07 27.396692 -21 59 49.91914
 2018-Oct-11 00:11 Am  08 07 27.552123 -21 59 49.89744
 2018-Oct-11 00:12  m  08 07 27.707539 -21 59 49.87606
 2018-Oct-11 00:13  m  08 07 27.862940 -21 59 49.85499
 2018-Oct-11 00:14  m  08 07 28.018325 -21 59 49.83425
 2018-Oct-11 00:15  m  08 07 28.173695 -21 59 49.81383
 2018-Oct-11 00:16  m  08 07 28.329049 -21 59 49.79373
 2018-Oct-11 00:17  m  08 07 28.484387 -21 59 49.77396
 2018-Oct-11 00:18  m  08 07 28.639708 -21 59 49.75450
 2018-Oct-11 00:19  m  08 07 28.795013 -21 59 49.73536
 2018-Oct-11 00:20  m  08 07 28.950300 -21 59 49.71654
 2018-Oct-11 00:21  m  08 07 29.105571 -21 59 49.69805
 2018-Oct-11 00:22  m  08 07 29.260823 -21 59 49.67987
 2018-Oct-11 00:23  m  08 07 29.416058 -21 59 49.66201
 2018-Oct-11 00:24  m  08 07 29.571275 -21 59 49.64447
 2018-Oct-11 00:25  m  08 07 29.726474 -21 59 49.62724
 2018-Oct-11 00:26  m  08 07 29.881654 -21 59 49.61034
 2018-Oct-11 00:27  m  08 07 30.036815 -21 59 49.59375
 2018-Oct-11 00:28  m  08 07 30.191956 -21 59 49.57748
 2018-Oct-11 00:29  m  08 07 30.347079 -21 59 49.56153
 2018-Oct-11 00:30  m  08 07 30.502181 -21 59 49.54589
 2018-Oct-11 00:31  m  08 07 30.657264 -21 59 49.53057
 2018-Oct-11 00:32  m  08 07 30.812327 -21 59 49.51556
 2018-Oct-11 00:33  m  08 07 30.967368 -21 59 49.50087
 2018-Oct-11 00:34  m  08 07 31.122390 -21 59 49.48650
 2018-Oct-11 00:35  m  08 07 31.277390 -21 59 49.47244
 2018-Oct-11 00:36  m  08 07 31.432368 -21 59 49.45869
 2018-Oct-11 00:37  m  08 07 31.587326 -21 59 49.44526
 2018-Oct-11 00:38  m  08 07 31.742261 -21 59 49.43214
 2018-Oct-11 00:39  m  08 07 31.897174 -21 59 49.41933
 2018-Oct-11 00:40  m  08 07 32.052065 -21 59 49.40684
 2018-Oct-11 00:41     08 07 32.206933 -21 59 49.39466
 2018-Oct-11 00:42     08 07 32.361778 -21 59 49.38279
 2018-Oct-11 00:43     08 07 32.516601 -21 59 49.37123
 2018-Oct-11 00:44     08 07 32.671399 -21 59 49.35998
 2018-Oct-11 00:45     08 07 32.826174 -21 59 49.34904
 2018-Oct-11 00:46     08 07 32.980925 -21 59 49.33842
 2018-Oct-11 00:47     08 07 33.135652 -21 59 49.32810
 2018-Oct-11 00:48     08 07 33.290354 -21 59 49.31809
 2018-Oct-11 00:49     08 07 33.445032 -21 59 49.30839
 2018-Oct-11 00:50     08 07 33.599684 -21 59 49.29900
 2018-Oct-11 00:51     08 07 33.754311 -21 59 49.28991
 2018-Oct-11 00:52     08 07 33.908913 -21 59 49.28113
 2018-Oct-11 00:53     08 07 34.063489 -21 59 49.27266
 2018-Oct-11 00:54     08 07 34.218039 -21 59 49.26450
 2018-Oct-11 00:55     08 07 34.372562 -21 59 49.25664
 2018-Oct-11 00:56     08 07 34.527059 -21 59 49.24908
 2018-Oct-11 00:57     08 07 34.681529 -21 59 49.24183
 2018-Oct-11 00:58     08 07 34.835972 -21 59 49.23488
 2018-Oct-11 00:59     08 07 34.990387 -21 59 49.22824
 2018-Oct-11 01:00     08 07 35.144775 -21 59 49.22190
